SCD 1                   
1 22490U 93009B   26188.05240078  .00000388  00000+0  55359-4 0  9998
2 22490  24.9696  84.9180 0041785 348.5572 139.3367 14.46126599763997
TECHSAT 1B (GO-32)      
1 25397U 98043D   26187.94313304  .00000041  00000+0  37960-4 0  9994
2 25397  99.0077 181.2008 0001943 128.2186 231.9167 14.24432203454147
SCD 2                   
1 25504U 98060A   26187.42526711  .00000374  00000+0  53669-4 0  9997
2 25504  24.9963 313.5211 0016647 327.2004  82.7878 14.45532989463114
DLR-TUBSAT              
1 25757U 99029B   26187.92712041  .00000073  00000+0  29829-4 0  9998
2 25757  98.6704 184.0813 0013052 292.1050  67.8758 14.52431936436111
TERRA                   
1 25994U 99068A   26188.15577171  .00000321  00000+0  74228-4 0  9992
2 25994  97.9444 236.9092 0003025 138.8672 306.0844 14.61119280412526
MAROC-TUBSAT            
1 27004U 01056D   26187.94927612 -.00000027  00000+0  21877-4 0  9997
2 27004  99.8094   5.1821 0020636  92.3893  36.3885 13.70263211228890
AQUA                    
1 27424U 02022A   26188.17848602  .00000693  00000+0  14750-3 0  9993
2 27424  98.4289 157.8622 0000724  96.7867 352.6333 14.62188941286193
SHIYAN-1 (SY-1)         
1 28220U 04012A   26188.14405066  .00010804  00000+0  32771-3 0  9997
2 28220  97.8681 267.5156 0004151 313.3427  46.7468 15.34307947214152
AURA                    
1 28376U 04026A   26188.18495641  .00000684  00000+0  14804-3 0  9998
2 28376  98.3426 144.8050 0001218  89.6842 270.4497 14.61359719169130
IRS-P5 (CARTOSAT-1)     
1 28649U 05017A   26187.94208735  .00001359  00000+0  14247-3 0  9992
2 28649  97.5304 210.1102 0001829  57.7463 302.3933 14.91102434146764
SINAH 1                 
1 28893U 05043D   26188.14582403  .00000301  00000+0  66652-4 0  9996
2 28893  98.2884 322.5879 0013827 209.2167 150.8263 14.64171774103444
RESURS-DK 1             
1 29228U 06021A   26187.66753135  .00001870  00000+0  11088-3 0  9998
2 29228  69.9331 289.1246 0006724 280.6462  79.3947 15.13298980105523
ARIRANG-2 (KOMPSAT-2)   
1 29268U 06031A   26188.18656715  .00000395  00000+0  82662-4 0  9995
2 29268  97.8315  11.6655 0014977  15.7280 117.8324 14.64672973 64406
LAPAN-TUBSAT            
1 29709U 07001A   26188.18628193  .00000153  00000+0  24158-4 0  9990
2 29709  98.1353 187.8621 0013405 117.1256 243.1327 14.85971242 54124
HAIYANG-1B              
1 31113U 07010A   26187.93219360  .00000080  00000+0  46330-4 0  9991
2 31113  98.3506 169.0126 0014300 138.6913 221.5354 14.31031817  3460
COSMO-SKYMED 1          
1 31598U 07023A   26188.18549528  .00001689  00000+0  15129-3 0  9999
2 31598  97.8850  20.2106 0001004  88.3982 271.7354 14.97196472 32788
TERRASAR-X              
1 31698U 07026A   26187.49113296  .00000461  00000+0  25162-4 0  9991
2 31698  97.4461 194.9230 0001884  89.5305 270.6146 15.19153904 56150
WORLDVIEW-1 (WV-1)      
1 32060U 07041A   26188.18182763  .00004244  00000+0  17557-3 0  9995
2 32060  97.3892 307.6432 0000952 260.9094  99.2036 15.24497852 45928
YAOGAN-3                
1 32289U 07055A   26188.19581397  .00001890  00000+0  19749-3 0  9999
2 32289  97.8147 217.8760 0001701  77.4604 282.6805 14.90863710  8851
COSMO-SKYMED 2          
1 32376U 07059A   26188.14413995  .00000332  00000+0  48243-4 0  9995
2 32376  97.8891  11.4530 0001348  91.9165 268.2202 14.82162098  4968
RADARSAT-2              
1 32382U 07061A   26188.18942378  .00000189  00000+0  90258-4 0  9994
2 32382  98.5782 194.8363 0001322  84.4472 275.6861 14.29982485968819
CARTOSAT-2A             
1 32783U 08021A   26188.20412426  .00000335  00000+0  51701-4 0  9998
2 32783  97.7618 236.2289 0013003  51.0455 309.1913 14.79269206981765
HUANJING 1A (HJ-1A)     
1 33320U 08041A   26188.19199670  .00002190  00000+0  26797-3 0  9996
2 33320  97.6696 173.2581 0020678  74.0271 286.3219 14.84040050961370
HUANJING 1B (HJ-1B)     
1 33321U 08041B   26188.23769269  .00000883  00000+0  11263-3 0  9998
2 33321  97.6532 176.4128 0037660 116.2519 244.2573 14.83355001961386
GEOEYE 1                
1 33331U 08042A   26188.16823900  .00000370  00000+0  78580-4 0  9992
2 33331  98.1330 261.8579 0004542  12.6548 347.4768 14.64644815953074
THEOS                   
1 33396U 08049A   26188.18965764 -.00000080  00000+0 -17608-4 0  9991
2 33396  98.5556 244.8231 0001122  86.7090 273.4215 14.20136153920803
COSMO-SKYMED 3          
1 33412U 08054A   26188.19536905  .00003136  00000+0  21285-3 0  9996
2 33412  97.8265  47.0970 0015007 192.2728 167.8136 15.07086374959953
YAOGAN-4                
1 33446U 08061A   26187.73108361  .00000972  00000+0  12536-3 0  9995
2 33446  97.9306 121.0976 0014579  13.2240 346.9353 14.83239973948564
GOSAT (IBUKI)           
1 33492U 09002A   26187.91118449  .00000239  00000+0  50550-4 0  9995
2 33492  98.0909 298.7472 0001202  83.4205 276.7136 14.67538625934357
DEIMOS-1                
1 35681U 09041A   26188.19520229  .00000579  00000+0  92676-4 0  9996
2 35681  97.7431 344.5577 0002581 102.6872 257.4627 14.75258840909839
DUBAISAT-1              
1 35682U 09041B   26187.89577170  .00000796  00000+0  12535-3 0  9996
2 35682  98.0076 320.9403 0010579  15.3859 344.7669 14.75157429908001
